UWE-3                   
1 39446U 13066AG  26062.84429509  .00007180  00000+0  62860-3 0  9999
2 39446  97.8593  18.3537 0048814 312.6373  47.0737 14.96096774661820
UNISAT-6                
1 40012U 14033C   26063.02333541  .00005144  00000+0  56107-3 0  9991
2 40012  97.7711 217.7181 0046387  56.2156 304.3466 14.87585895630523
DUCHIFAT-1              
1 40021U 14033M   26063.08119001  .00078555  00000+0  14393-2 0  9996
2 40021  98.0636 108.8507 0006589 100.6139 259.5852 15.49015163639401
QB50P1                  
1 40025U 14033R   26062.90332399  .00014367  00000+0  74272-3 0  9991
2 40025  98.0997  66.7953 0007737 216.5301 143.5403 15.16365653637066
LILACSAT-2              
1 40908U 15049K   26063.14924355  .00023648  00000+0  45679-3 0  9996
2 40908  97.4812  96.1815 0005602 273.1708  86.8901 15.47780500579487
FOX-1A (AO-85)          
1 40967U 15058D   26063.02281073  .00005669  00000+0  51138-3 0  9991
2 40967  64.7735 245.6353 0129180  98.1982 263.3804 14.90296117 97895
CAS-2T & KS-1Q          
1 41847U 16066G   26063.16544353  .00002121  00000+0  30409-3 0  9995
2 41847  98.3898 140.0764 0343766  88.1915 275.8608 14.44449866489630
RADFXSAT (FOX-1B)       
1 43017U 17073E   26063.09801982  .00015828  00000+0  71680-3 0  9995
2 43017  97.4871 292.5129 0155304 331.5543  27.7272 15.10729056449511
DIWATA-2B               
1 43678U 18084H   26063.18528794  .00002778  00000+0  22877-3 0  9992
2 43678  98.1031 254.9962 0011212 143.8581 216.3401 14.99924080400474
ES'HAIL 2               
1 43700U 18090A   26063.06919770  .00000131  00000+0  00000+0 0  9991
2 43700   0.0179 225.9576 0002624 151.0528 195.4980  1.00271139 26621
FOX-1CLIFF (AO-95)      
1 43770U 18099N   26063.12904563  .00018229  00000+0  74837-3 0  9998
2 43770  97.4523 123.8824 0008840   7.3581 352.7785 15.24235219397207
ITASAT                  
1 43786U 18099AE  26063.10418307  .00010986  00000+0  54891-3 0  9999
2 43786  97.4177 116.7460 0012799   6.2236 353.9154 15.17565295396966
JY1SAT (JO-97)          
1 43803U 18099AX  26063.12783958  .00026991  00000+0  92814-3 0  9998
2 43803  97.4263 125.8050 0004640 283.2132  76.8590 15.30048255397543
UWE-4                   
1 43880U 18111E   26063.02118304  .00045570  00000+0  11555-2 0  9990
2 43880  97.5853 347.1056 0008682   1.3610 358.7657 15.39523721394569
TIANYAN 01              
1 44881U 19093C   26063.16536115  .00001670  00000+0  19524-3 0  9999
2 44881  97.7627 137.9343 0015030  74.3115 285.9758 14.86327322335817
RS-44 & BREEZE-KM R/B   
1 44909U 19096E   26063.00932060  .00000008  00000+0 -14901-4 0  9995
2 44909  82.5191  49.5898 0218152  30.5711 330.7895 12.79747404288898
SALSAT                  
1 46495U 20068K   26062.77970162  .00012684  00000+0  46597-3 0  9993
2 46495  97.8847  59.5668 0008731 321.6728  38.3888 15.28039347299257
